{"type": "FeatureCollection", "features": [ {"type": "Feature", "properties": {"norad_id": 35242, "name": "FENGYUN 1C DEB", "group": "fengyun-1c-debris", "lat": -20.84583531830086, "lon": -154.06176598282954, "alt_km": 848.3117024170715, "timestamp": "2025-12-03T06:58:43.525999+00:00", "meta": {"OBJECT_NAME": "FENGYUN 1C DEB", "OBJECT_ID": "1999-025DRA", "EPOCH": "2025-11-30T22:04:23.860704", "MEAN_MOTION": 13.52294722, "ECCENTRICITY": 0.03015867, "INCLINATION": 99.9707, "RA_OF_ASC_NODE": 27.3938, "ARG_OF_PERICENTER": 217.9619, "MEAN_ANOMALY": 326.6369, "EPHEMERIS_TYPE": 0, "CLASSIFICATION_TYPE": "U", "NORAD_CAT_ID": 35242, "ELEMENT_SET_NO": 999, "REV_AT_EPOCH": 57967, "BSTAR": 0.0020813864, "MEAN_MOTION_DOT": 1.781e-05, "MEAN_MOTION_DDOT": 0}, "tle": {"line1": "1 35242U 99025DRA 25334.91972061  .00001781  00000+0  20814-2 0  9996", "line2": "2 35242  99.9707  27.3938 0301586 217.9619 326.6369 13.52294722579675"}}, "geometry": {"type": "Point", "coordinates": [-154.06176598282954, -20.84583531830086]}}, {"type": "Feature", "properties": {"norad_id": 35243, "name": "FENGYUN 1C DEB", "group": "fengyun-1c-debris", "lat": 10.587459125439619, "lon": 53.38694422749227, "alt_km": 605.5059833913829, "timestamp": "2025-12-03T06:58:43.526009+00:00", "meta": {"OBJECT_NAME": "FENGYUN 1C DEB", "OBJECT_ID": "1999-025DRB", "EPOCH": "2025-12-02T11:32:34.586304", "MEAN_MOTION": 14.86326281, "ECCENTRICITY": 0.00663705, "INCLINATION": 98.8824, "RA_OF_ASC_NODE": 54.1581, "ARG_OF_PERICENTER": 289.6129, "MEAN_ANOMALY": 69.7928, "EPHEMERIS_TYPE": 0, "CLASSIFICATION_TYPE": "U", "NORAD_CAT_ID": 35243, "ELEMENT_SET_NO": 999, "REV_AT_EPOCH": 90848, "BSTAR": 0.0027921932, "MEAN_MOTION_DOT": 0.00025614, "MEAN_MOTION_DDOT": 0}, "tle": {"line1": "1 35243U 99025DRB 25336.48095586  .00025614  00000+0  27922-2 0  9997", "line2": "2 35243  98.8824  54.1581 0066370 289.6129  69.7928 14.86326281908482"}}, "geometry": {"type": "Point", "coordinates": [53.38694422749227, 10.587459125439619]}}, {"type": "Feature", "properties": {"norad_id": 35244, "name": "FENGYUN 1C DEB", "group": "fengyun-1c-debris", "lat": -12.49159290920269, "lon": -164.25092257121204, "alt_km": 824.204610793402, "timestamp": "2025-12-03T06:58:43.526019+00:00", "meta": {"OBJECT_NAME": "FENGYUN 1C DEB", "OBJECT_ID": "1999-025DRC", "EPOCH": "2025-11-28T08:16:08.942880", "MEAN_MOTION": 14.06587335, "ECCENTRICITY": 0.00714695, "INCLINATION": 98.8424, "RA_OF_ASC_NODE": 12.8921, "ARG_OF_PERICENTER": 197.497, "MEAN_ANOMALY": 162.3735, "EPHEMERIS_TYPE": 0, "CLASSIFICATION_TYPE": "U", "NORAD_CAT_ID": 35244, "ELEMENT_SET_NO": 999, "REV_AT_EPOCH": 65619, "BSTAR": 0.00065997772, "MEAN_MOTION_DOT": 1.076e-05, "MEAN_MOTION_DDOT": 0}, "tle": {"line1": "1 35244U 99025DRC 25332.34454795  .00001076  00000+0  65998-3 0  9992", "line2": "2 35244  98.8424  12.8921 0071469 197.4970 162.3735 14.06587335656198"}}, "geometry": {"type": "Point", "coordinates": [-164.25092257121204, -12.49159290920269]}}, {"type": "Feature", "properties": {"norad_id": 35245, "name": "FENGYUN 1C DEB", "group": "fengyun-1c-debris", "lat": -48.92029747609157, "lon": -127.90684581633379, "alt_km": 839.7583949152577, "timestamp": "2025-12-03T06:58:43.526029+00:00", "meta": {"OBJECT_NAME": "FENGYUN 1C DEB", "OBJECT_ID": "1999-025DRD", "EPOCH": "2025-12-02T04:32:20.859648", "MEAN_MOTION": 14.12979881, "ECCENTRICITY": 0.00581794, "INCLINATION": 99.0852, "RA_OF_ASC_NODE": 61.5525, "ARG_OF_PERICENTER": 300.4147, "MEAN_ANOMALY": 89.1685, "EPHEMERIS_TYPE": 0, "CLASSIFICATION_TYPE": "U", "NORAD_CAT_ID": 35245, "ELEMENT_SET_NO": 999, "REV_AT_EPOCH": 87628, "BSTAR": 0.0019494848, "MEAN_MOTION_DOT": 3.648e-05, "MEAN_MOTION_DDOT": 0}, "tle": {"line1": "1 35245U 99025DRD 25336.18913032  .00003648  00000+0  19495-2 0  9990", "line2": "2 35245  99.0852  61.5525 0058179 300.4147  89.1685 14.12979881876285"}}, "geometry": {"type": "Point", "coordinates": [-127.90684581633379, -48.92029747609157]}}, {"type": "Feature", "properties": {"norad_id": 36147, "name": "FENGYUN 1C DEB", "group": "fengyun-1c-debris", "lat": 14.380938502341637, "lon": 44.69909193274514, "alt_km": 1056.8104911471983, "timestamp": "2025-12-03T06:58:43.526040+00:00", "meta": {"OBJECT_NAME": "FENGYUN 1C DEB", "OBJECT_ID": "1999-025DRU", "EPOCH": "2025-11-30T21:50:24.807840", "MEAN_MOTION": 13.46453652, "ECCENTRICITY": 0.04407422, "INCLINATION": 98.5269, "RA_OF_ASC_NODE": 44.8692, "ARG_OF_PERICENTER": 293.3481, "MEAN_ANOMALY": 62.1872, "EPHEMERIS_TYPE": 0, "CLASSIFICATION_TYPE": "U", "NORAD_CAT_ID": 36147, "ELEMENT_SET_NO": 999, "REV_AT_EPOCH": 59838, "BSTAR": 0.0016909351, "MEAN_MOTION_DOT": 1.8e-05, "MEAN_MOTION_DDOT": 0}, "tle": {"line1": "1 36147U 99025DRU 25334.91000935  .00001800  00000+0  16909-2 0  9995", "line2": "2 36147  98.5269  44.8692 0440742 293.3481  62.1872 13.46453652598384"}}, "geometry": {"type": "Point", "coordinates": [44.69909193274514, 14.380938502341637]}}, {"type": "Feature", "properties": {"norad_id": 36148, "name": "FENGYUN 1C DEB", "group": "fengyun-1c-debris", "lat": 76.04519096800323, "lon": 45.64220824061569, "alt_km": 918.6684015509527, "timestamp": "2025-12-03T06:58:43.526050+00:00", "meta": {"OBJECT_NAME": "FENGYUN 1C DEB", "OBJECT_ID": "1999-025DRV", "EPOCH": "2025-12-01T19:49:52.589568", "MEAN_MOTION": 13.84775796, "ECCENTRICITY": 0.02844186, "INCLINATION": 98.4221, "RA_OF_ASC_NODE": 187.7265, "ARG_OF_PERICENTER": 19.3374, "MEAN_ANOMALY": 341.832, "EPHEMERIS_TYPE": 0, "CLASSIFICATION_TYPE": "U", "NORAD_CAT_ID": 36148, "ELEMENT_SET_NO": 999, "REV_AT_EPOCH": 90093, "BSTAR": 0.0033360095, "MEAN_MOTION_DOT": 5.112e-05, "MEAN_MOTION_DDOT": 0}, "tle": {"line1": "1 36148U 99025DRV 25335.82630312  .00005112  00000+0  33360-2 0  9995", "line2": "2 36148  98.4221 187.7265 0284418  19.3374 341.8320 13.84775796900939"}}, "geometry": {"type": "Point", "coordinates": [45.64220824061569, 76.04519096800323]}}, {"type": "Feature", "properties": {"norad_id": 36152, "name": "FENGYUN 1C DEB", "group": "fengyun-1c-debris", "lat": -67.91624008887601, "lon": 174.90569539923538, "alt_km": 802.9993305486287, "timestamp": "2025-12-03T06:58:43.526061+00:00", "meta": {"OBJECT_NAME": "FENGYUN 1C DEB", "OBJECT_ID": "1999-025DRZ", "EPOCH": "2025-12-01T19:54:46.717632", "MEAN_MOTION": 14.17165266, "ECCENTRICITY": 0.00551923, "INCLINATION": 98.7567, "RA_OF_ASC_NODE": 15.7938, "ARG_OF_PERICENTER": 243.2962, "MEAN_ANOMALY": 116.2556, "EPHEMERIS_TYPE": 0, "CLASSIFICATION_TYPE": "U", "NORAD_CAT_ID": 36152, "ELEMENT_SET_NO": 999, "REV_AT_EPOCH": 64002, "BSTAR": 0.0012638311, "MEAN_MOTION_DOT": 2.542e-05, "MEAN_MOTION_DDOT": 0}, "tle": {"line1": "1 36152U 99025DRZ 25335.82970738  .00002542  00000+0  12638-2 0  9998", "line2": "2 36152  98.7567  15.7938 0055192 243.2962 116.2556 14.17165266640021"}}, "geometry": {"type": "Point", "coordinates": [174.90569539923538, -67.91624008887601]}}, {"type": "Feature", "properties": {"norad_id": 36163, "name": "FENGYUN 1C DEB", "group": "fengyun-1c-debris", "lat": 49.832333972899114, "lon": 169.57583880182275, "alt_km": 676.8275309014762, "timestamp": "2025-12-03T06:58:43.526071+00:00", "meta": {"OBJECT_NAME": "FENGYUN 1C DEB", "OBJECT_ID": "1999-025DSL", "EPOCH": "2025-11-27T12:26:15.654336", "MEAN_MOTION": 14.58361311, "ECCENTRICITY": 0.00369307, "INCLINATION": 99.0776, "RA_OF_ASC_NODE": 174.1952, "ARG_OF_PERICENTER": 119.0745, "MEAN_ANOMALY": 241.4158, "EPHEMERIS_TYPE": 0, "CLASSIFICATION_TYPE": "U", "NORAD_CAT_ID": 36163, "ELEMENT_SET_NO": 999, "REV_AT_EPOCH": 88965, "BSTAR": 0.0029707469, "MEAN_MOTION_DOT": 0.00013857, "MEAN_MOTION_DDOT": 0}, "tle": {"line1": "1 36163U 99025DSL 25331.51823674  .00013857  00000+0  29707-2 0  9994", "line2": "2 36163  99.0776 174.1952 0036930 119.0745 241.4158 14.58361311889650"}}, "geometry": {"type": "Point", "coordinates": [169.57583880182275, 49.832333972899114]}}, {"type": "Feature", "properties": {"norad_id": 36167, "name": "FENGYUN 1C DEB", "group": "fengyun-1c-debris", "lat": 64.6663195333893, "lon": 83.169538189657, "alt_km": 768.76523452745, "timestamp": "2025-12-03T06:58:43.526081+00:00", "meta": {"OBJECT_NAME": "FENGYUN 1C DEB", "OBJECT_ID": "1999-025DSQ", "EPOCH": "2025-11-28T23:42:19.973088", "MEAN_MOTION": 14.49060184, "ECCENTRICITY": 0.00697894, "INCLINATION": 98.8118, "RA_OF_ASC_NODE": 239.5513, "ARG_OF_PERICENTER": 286.6163, "MEAN_ANOMALY": 72.7374, "EPHEMERIS_TYPE": 0, "CLASSIFICATION_TYPE": "U", "NORAD_CAT_ID": 36167, "ELEMENT_SET_NO": 999, "REV_AT_EPOCH": 67080, "BSTAR": 0.0012141916, "MEAN_MOTION_DOT": 4.705e-05, "MEAN_MOTION_DDOT": 0}, "tle": {"line1": "1 36167U 99025DSQ 25332.98773117  .00004705  00000+0  12142-2 0  9993", "line2": "2 36167  98.8118 239.5513 0069789 286.6163  72.7374 14.49060184670807"}}, "geometry": {"type": "Point", "coordinates": [83.169538189657, 64.6663195333893]}}, {"type": "Feature", "properties": {"norad_id": 36173, "name": "FENGYUN 1C DEB", "group": "fengyun-1c-debris", "lat": -81.7424429902955, "lon": 30.813916318412502, "alt_km": 755.3179159015453, "timestamp": "2025-12-03T06:58:43.526091+00:00", "meta": {"OBJECT_NAME": "FENGYUN 1C DEB", "OBJECT_ID": "1999-025DSW", "EPOCH": "2025-11-27T03:07:28.371072", "MEAN_MOTION": 14.25142788, "ECCENTRICITY": 0.01460397, "INCLINATION": 98.2105, "RA_OF_ASC_NODE": 289.2336, "ARG_OF_PERICENTER": 231.4906, "MEAN_ANOMALY": 127.3105, "EPHEMERIS_TYPE": 0, "CLASSIFICATION_TYPE": "U", "NORAD_CAT_ID": 36173, "ELEMENT_SET_NO": 999, "REV_AT_EPOCH": 58868, "BSTAR": 0.00039734703, "MEAN_MOTION_DOT": 1e-05, "MEAN_MOTION_DDOT": 0}, "tle": {"line1": "1 36173U 99025DSW 25331.13018948  .00001000  00000+0  39735-3 0  9993", "line2": "2 36173  98.2105 289.2336 0146039 231.4906 127.3105 14.25142788588684"}}, "geometry": {"type": "Point", "coordinates": [30.813916318412502, -81.7424429902955]}}]}